NORAD_CAT_ID,OBJECT_NAME,OBJECT_TYPE,EPOCH,MEAN_MOTION,ECCENTRICITY,INCLINATION,RA_OF_ASC_NODE,ARG_OF_PERICENTER,MEAN_ANOMALY,BSTAR,MEAN_MOTION_DOT,MEAN_MOTION_DDOT,TLE_LINE0,TLE_LINE1,TLE_LINE2,SEMIMAJOR_AXIS,PERIOD,APOGEE,PERIGEE,DECAYED
55935.0,STARLINK-5920,PAYLOAD,2024-05-13 04:39:35,14.98294184,0.0003399,70.0,162.4795,262.351,97.7263,0.00043496,5.096e-05,0.0,0 STARLINK-5920,1 55935U 23037X   24134.19415867  .00005096  00000-0  43496-3 0  9996,2 55935  70.0000 162.4795 0003399 262.3510  97.7263 14.98294184 64636,6950.304,96.109,574.531,569.806,0.0
55935.0,STARLINK-5920,PAYLOAD,2024-05-13 11:04:08,14.98299055,0.0003408,70.0002,161.8061,262.652,97.4252,0.00061138,7.204e-05,0.0,0 STARLINK-5920,1 55935U 23037X   24134.46120485  .00007204  00000-0  61138-3 0  9991,2 55935  70.0002 161.8061 0003408 262.6520  97.4252 14.98299055 64336,6950.289,96.109,574.522,569.785,0.0
55935.0,STARLINK-5920,PAYLOAD,2024-05-13 19:04:48,14.98308637,0.0002798,70.0005,160.9642,259.3722,100.7122,0.00079739,9.429e-05,0.0,0 STARLINK-5920,1 55935U 23037X   24134.79501065  .00009429  00000-0  79739-3 0  9991,2 55935  70.0005 160.9642 0002798 259.3722 100.7122 14.98308637 64388,6950.259,96.108,574.069,570.179,0.0
55935.0,STARLINK-5920,PAYLOAD,2024-05-14 04:41:36,14.98328865,0.0003474,70.0003,159.9543,260.2421,99.8346,0.0010631,0.00012615,0.0,0 STARLINK-5920,1 55935U 23037X   24135.19556672  .00012615  00000-0  10631-2 0  9996,2 55935  70.0003 159.9543 0003474 260.2421  99.8346 14.98328865 64788,6950.196,96.107,574.476,569.647,0.0
55935.0,STARLINK-5920,PAYLOAD,2024-05-14 11:06:09,14.98332933,0.000345,70.0002,159.2809,259.8563,100.2207,0.00090396,0.0001071,0.0,0 STARLINK-5920,1 55935U 23037X   24135.46260540  .00010710  00000-0  90396-3 0  9993,2 55935  70.0002 159.2809 0003450 259.8563 100.2207 14.98332933 64481,6950.184,96.107,574.447,569.651,0.0
55935.0,STARLINK-5920,PAYLOAD,2024-05-14 19:06:49,14.98341499,0.0003449,70.0002,158.439,259.6407,100.4364,0.0008827,0.00010458,0.0,0 STARLINK-5920,1 55935U 23037X   24135.79640245  .00010458  00000-0  88270-3 0  9990,2 55935  70.0002 158.4390 0003449 259.6407 100.4364 14.98341499 64539,6950.157,96.106,574.419,569.625,0.0
55935.0,STARLINK-5920,PAYLOAD,2024-05-15 04:43:36,14.98356322,0.0003553,70.0001,157.4285,258.322,101.7541,0.00090336,0.0001071,0.0,0 STARLINK-5920,1 55935U 23037X   24136.19695572  .00010710  00000-0  90336-3 0  9995,2 55935  70.0001 157.4285 0003553 258.3220 101.7541 14.98356322 64931,6950.111,96.105,574.446,569.507,0.0
55935.0,STARLINK-5920,PAYLOAD,2024-05-15 11:08:08,14.98361564,0.0003542,70.0002,156.7555,258.5705,101.5057,0.0010212,0.00012123,0.0,0 STARLINK-5920,1 55935U 23037X   24136.46399157  .00012123  00000-0  10212-2 0  9999,2 55935  70.0002 156.7555 0003542 258.5705 101.5057 14.98361564 64633,6950.095,96.105,574.422,569.499,0.0
55935.0,STARLINK-5920,PAYLOAD,2024-05-16 04:45:36,14.98356091,0.0003464,70.0002,154.9043,258.8596,101.2173,0.00034164,3.989e-05,0.0,0 STARLINK-5920,1 55935U 23037X   24137.19834126  .00003989  00000-0  34164-3 0  9993,2 55935  70.0002 154.9043 0003464 258.8596 101.2173 14.98356091 65084,6950.112,96.105,574.385,569.57,0.0
55935.0,STARLINK-5920,PAYLOAD,2024-05-16 11:10:08,14.98368494,0.0003458,70.0002,154.2305,260.077,99.9999,0.00060786,7.175e-05,0.0,0 STARLINK-5920,1 55935U 23037X   24137.46537228  .00007175  00000-0  60786-3 0  9996,2 55935  70.0002 154.2305 0003458 260.0770  99.9999 14.98368494 64785,6950.074,96.105,574.342,569.536,0.0
55935.0,STARLINK-5920,PAYLOAD,2024-05-17 11:12:08,14.98334899,0.0003349,69.9998,151.7064,261.0994,98.9786,-0.0003413,-4.164e-05,0.0,0 STARLINK-5920,1 55935U 23037X   24138.46676770 -.00004164  00000-0 -34130-3 0  9994,2 55935  69.9998 151.7064 0003349 261.0994  98.9786 14.98334899 65278,6950.178,96.107,574.37,569.715,0.0
55935.0,STARLINK-5920,PAYLOAD,2024-05-17 17:36:40,14.98333223,0.0003305,69.9998,151.0327,262.2861,97.7922,-0.00033111,-4.042e-05,0.0,0 STARLINK-5920,1 55935U 23037X   24138.73380661 -.00004042  00000-0 -33111-3 0  9998,2 55935  69.9998 151.0327 0003305 262.2861  97.7922 14.98333223 64976,6950.183,96.107,574.345,569.751,0.0
55935.0,STARLINK-5920,PAYLOAD,2024-05-18 09:38:01,14.98331602,0.0003285,70.0,149.349,264.922,95.1564,-0.00025,-3.075e-05,0.0,0 STARLINK-5920,1 55935U 23037X   24139.40140345 -.00003075  00000-0 -25000-3 0  9999,2 55935  70.0000 149.3490 0003285 264.9220  95.1564 14.98331602 65074,6950.188,96.107,574.336,569.77,0.0
55935.0,STARLINK-5920,PAYLOAD,2024-05-18 17:38:41,14.98328932,0.0003208,70.0,148.5072,265.1508,94.9285,-0.00015153,-1.901e-05,0.0,0 STARLINK-5920,1 55935U 23037X   24139.73520504 -.00001901  00000-0 -15153-3 0  9998,2 55935  70.0000 148.5072 0003208 265.1508  94.9285 14.98328932 65460,6950.196,96.107,574.291,569.832,0.0
55935.0,STARLINK-5920,PAYLOAD,2024-05-19 09:40:02,14.98327246,0.0003201,69.9995,146.8246,264.3286,95.7508,-7.1302e-05,-9.44e-06,0.0,0 STARLINK-5920,1 55935U 23037X   24140.40281000 -.00000944  00000-0 -71302-4 0  9994,2 55935  69.9995 146.8246 0003201 264.3286  95.7508 14.98327246 65229,6950.201,96.107,574.291,569.842,0.0
55935.0,STARLINK-5920,PAYLOAD,2024-05-19 17:40:43,14.98331478,0.0003229,69.9997,145.9828,263.2968,96.7823,0.000438,5.137e-05,0.0,0 STARLINK-5920,1 55935U 23037X   24140.73661157  .00005137  00000-0  43800-3 0  9993,2 55935  69.9997 145.9828 0003229 263.2968  96.7823 14.98331478 65618,6950.188,96.107,574.298,569.809,0.0
55935.0,STARLINK-5920,PAYLOAD,2024-05-20 09:42:03,14.98345294,0.0003252,69.9995,144.2998,262.8231,97.2559,0.00062684,7.397e-05,0.0,0 STARLINK-5920,1 55935U 23037X   24141.40420591  .00007397  00000-0  62684-3 0  9994,2 55935  69.9995 144.2998 0003252 262.8231  97.2559 14.98345294 65376,6950.146,96.106,574.271,569.75,0.0
55935.0,STARLINK-5920,PAYLOAD,2024-05-21 04:55:40,14.98330747,0.0002991,70.0001,142.2801,257.8347,102.2477,8.1975e-05,8.85e-06,0.0,0 STARLINK-5920,1 55935U 23037X   24142.20533015  .00000885  00000-0  81975-4 0  9999,2 55935  70.0001 142.2801 0002991 257.8347 102.2477 14.98330747 65833,6950.191,96.107,574.134,569.977,0.0
55935.0,STARLINK-5920,PAYLOAD,2024-05-21 08:07:56,14.98324,0.0003156,69.9996,141.944,262.2819,97.7982,-8.8489e-05,-1.149e-05,0.0,0 STARLINK-5920,1 55935U 23037X   24142.33885310 -.00001149  00000-0 -88489-4 0  9994,2 55935  69.9996 141.9440 0003156 262.2819  97.7982 14.98324000 65515,6950.211,96.107,574.27,569.883,0.0
55935.0,STARLINK-5920,PAYLOAD,2024-05-22 09:46:06,14.98331416,0.0003088,69.9988,139.2507,263.5554,96.5253,-4.8388e-05,-6.7e-06,0.0,0 STARLINK-5920,1 55935U 23037X   24143.40701518 -.00000670  00000-0 -48388-4 0  9992,2 55935  69.9988 139.2507 0003088 263.5554  96.5253 14.98331416 66017,6950.189,96.107,574.2,569.907,0.0
55935.0,STARLINK-5920,PAYLOAD,2024-05-23 09:48:06,14.98330833,0.0003148,69.9985,136.7253,265.2708,94.8092,0.00021236,2.442e-05,0.0,0 STARLINK-5920,1 55935U 23037X   24144.40841158  .00002442  00000-0  21236-3 0  9997,2 55935  69.9985 136.7253 0003148 265.2708  94.8092 14.98330833 66161,6950.19,96.107,574.243,569.867,0.0
55935.0,STARLINK-5920,PAYLOAD,2024-05-24 08:13:59,14.98351783,0.0002387,69.9988,134.3686,248.5163,111.5741,-0.00023722,-2.924e-05,0.0,0 STARLINK-5920,1 55935U 23037X   24145.34304579 -.00002924  00000-0 -23722-3 0  9991,2 55935  69.9988 134.3686 0002387 248.5163 111.5741 14.98351783 66302,6950.126,96.106,573.65,570.332,0.0
55935.0,STARLINK-5920,PAYLOAD,2024-05-25 05:03:44,14.98329766,0.0002943,69.9989,132.1805,262.437,97.6455,-8.8731e-06,-1.99e-06,0.0,0 STARLINK-5920,1 55935U 23037X   24146.21093505 -.00000199  00000-0 -88731-5 0  9997,2 55935  69.9989 132.1805 0002943 262.4370  97.6455 14.98329766 66431,6950.194,96.107,574.104,570.013,0.0
55935.0,STARLINK-5920,PAYLOAD,2024-05-25 09:52:09,14.98328318,0.0002949,69.9989,131.6756,263.5882,96.4941,-3.0576e-05,-4.58e-06,0.0,0 STARLINK-5920,1 55935U 23037X   24146.41121638 -.00000458  00000-0 -30576-4 0  9999,2 55935  69.9989 131.6756 0002949 263.5882  96.4941 14.98328318 66121,6950.198,96.107,574.113,570.013,0.0
55935.0,STARLINK-5920,PAYLOAD,2024-05-25 21:05:06,14.98317967,0.0003061,69.9983,130.4966,268.1443,91.9366,-0.00012289,-1.559e-05,0.0,0 STARLINK-5920,1 55935U 23037X   24146.87854445 -.00001559  00000-0 -12289-3 0  9991,2 55935  69.9983 130.4966 0003061 268.1443  91.9366 14.98317967 66539,6950.23,96.108,574.223,569.968,0.0
55935.0,STARLINK-5920,PAYLOAD,2024-05-26 05:05:45,14.98331389,0.0002974,69.9986,129.6549,264.5535,95.5285,3.2947e-05,3e-06,0.0,0 STARLINK-5920,1 55935U 23037X   24147.21233236  .00000300  00000-0  32947-4 0  9994,2 55935  69.9986 129.6549 0002974 264.5535  95.5285 14.98331389 66582,6950.189,96.107,574.121,569.987,0.0
55935.0,STARLINK-5920,PAYLOAD,2024-05-26 08:18:01,14.98332768,0.000302,69.9986,129.3186,267.3295,92.7519,3.8945e-05,3.72e-06,0.0,0 STARLINK-5920,1 55935U 23037X   24147.34585120  .00000372  00000-0  38945-4 0  9993,2 55935  69.9986 129.3186 0003020 267.3295  92.7519 14.98332768 66269,6950.184,96.107,574.148,569.95,0.0
55935.0,STARLINK-5920,PAYLOAD,2024-05-26 22:43:14,14.98327552,0.0003058,69.9984,127.8033,267.7974,92.2835,7.0089e-05,7.43e-06,0.0,0 STARLINK-5920,1 55935U 23037X   24147.94669335  .00000743  00000-0  70089-4 0  9997,2 55935  69.9984 127.8033 0003058 267.7974  92.2835 14.98327552 66351,6950.2,96.107,574.191,569.94,0.0
55935.0,STARLINK-5920,PAYLOAD,2024-05-27 05:07:46,14.98327921,0.0003052,69.9984,127.13,267.7397,92.3413,7.0141e-05,7.44e-06,0.0,0 STARLINK-5920,1 55935U 23037X   24148.21373361  .00000744  00000-0  70141-4 0  9999,2 55935  69.9984 127.1300 0003052 267.7397  92.3413 14.98327921 66739,6950.199,96.107,574.186,569.943,0.0
55935.0,STARLINK-5920,PAYLOAD,2024-05-27 08:20:05,14.98290355,0.0002795,69.9999,126.7947,269.5446,90.5392,-0.00016004,-2e-05,0.0,0 STARLINK-5920,1 55935U 23037X   24148.34728281 -.00002000  00000-0 -16004-3 0  9994,2 55935  69.9999 126.7947 0002795 269.5446  90.5392 14.98290355 66753,6950.315,96.11,574.123,570.238,0.0
